start=new Date('2023-06-05T00:00:00.000Z').valueOf();
sats=[{"APOAPSIS":"547.851","TLE_LINE1":"1 45693U 20035AN  23155.61366312  .00002759  00000-0  20411-3 0  9995","TIME_SYSTEM":"UTC","MEAN_MOTION_DOT":"0.00002759","RCS_SIZE":"LARGE","EPHEMERIS_TYPE":"0","MEAN_MOTION_DDOT":"0.0000000000000","LAUNCH_DATE":"2020-06-04","ECCENTRICITY":"0.00008750","BSTAR":"0.00020411000000","OBJECT_ID":"2020-035AN","MEAN_ELEMENT_THEORY":"SGP4","MEAN_ANOMALY":"255.2926","CLASSIFICATION_TYPE":"U","ARG_OF_PERICENTER":"104.8160","EPOCH":"2023-06-04T14:43:40.493568","SEMIMAJOR_AXIS":"6925.380","MEAN_MOTION":"15.06389894","CENTER_NAME":"EARTH","SITE":"AFETR","REV_AT_EPOCH":"16677","NORAD_CAT_ID":"45693","PERIOD":"95.593","COUNTRY_CODE":"US","OBJECT_TYPE":"PAYLOAD","ELEMENT_SET_NO":"999","PERIAPSIS":"546.639","OBJECT_NAME":"STARLINK-1417","FILE":"3924842","GP_ID":"233179244","TLE_LINE2":"2 45693  53.0534 266.5347 0000875 104.8160 255.2926 15.06389894166773","RA_OF_ASC_NODE":"266.5347","REF_FRAME":"TEME","DECAY_DATE":null,"INCLINATION":"53.0534"},{"ECCENTRICITY":"0.00036900","BSTAR":"0.00247200000000","LAUNCH_DATE":"2020-06-04","MEAN_MOTION_DDOT":"0.0000000000000","MEAN_MOTION":"15.33308646","EPOCH":"2023-06-04T13:47:28.689504","SEMIMAJOR_AXIS":"6844.086","ARG_OF_PERICENTER":"337.3160","CLASSIFICATION_TYPE":"U","MEAN_ANOMALY":"22.7677","MEAN_ELEMENT_THEORY":"SGP4","OBJECT_ID":"2020-035AP","TLE_LINE1":"1 45694U 20035AP  23155.57463761  .00081207  00000-0  24720-2 0  9998","TIME_SYSTEM":"UTC","APOAPSIS":"468.476","EPHEMERIS_TYPE":"0","RCS_SIZE":"LARGE","MEAN_MOTION_DOT":"0.00081207","FILE":"3925071","OBJECT_NAME":"STARLINK-1419","PERIAPSIS":"463.425","ELEMENT_SET_NO":"999","COUNTRY_CODE":"US","OBJECT_TYPE":"PAYLOAD","INCLINATION":"53.0493","DECAY_DATE":null,"RA_OF_ASC_NODE":"247.2678","REF_FRAME":"TEME","TLE_LINE2":"2 45694  53.0493 247.2678 0003690 337.3160  22.7677 15.33308646166655","GP_ID":"233192474","SITE":"AFETR","CENTER_NAME":"EARTH","PERIOD":"93.915","NORAD_CAT_ID":"45694","REV_AT_EPOCH":"16665"},{"FILE":"3925032","OBJECT_NAME":"STARLINK-1420","PERIAPSIS":"546.174","ELEMENT_SET_NO":"999","COUNTRY_CODE":"US","OBJECT_TYPE":"PAYLOAD","INCLINATION":"53.0548","DECAY_DATE":null,"REF_FRAME":"TEME","RA_OF_ASC_NODE":"247.1161","TLE_LINE2":"2 45695  53.0548 247.1161 0001517 142.2974 217.8122 15.06396314166634","GP_ID":"233191708","SITE":"AFETR","CENTER_NAME":"EARTH","PERIOD":"95.592","NORAD_CAT_ID":"45695","REV_AT_EPOCH":"16663","ECCENTRICITY":"0.00015170","BSTAR":"0.00036818000000","LAUNCH_DATE":"2020-06-04","MEAN_MOTION_DDOT":"0.0000000000000","MEAN_MOTION":"15.06396314","EPOCH":"2023-06-04T11:33:52.700544","SEMIMAJOR_AXIS":"6925.360","ARG_OF_PERICENTER":"142.2974","CLASSIFICATION_TYPE":"U","MEAN_ANOMALY":"217.8122","MEAN_ELEMENT_THEORY":"SGP4","OBJECT_ID":"2020-035AQ","TIME_SYSTEM":"UTC","TLE_LINE1":"1 45695U 20035AQ  23155.48185996  .00005206  00000-0  36818-3 0  9997","APOAPSIS":"548.275","EPHEMERIS_TYPE":"0","RCS_SIZE":"LARGE","MEAN_MOTION_DOT":"0.00005206"},{"ELEMENT_SET_NO":"999","PERIAPSIS":"546.861","OBJECT_TYPE":"PAYLOAD","COUNTRY_CODE":"US","FILE":"3925173","OBJECT_NAME":"STARLINK-1422","TLE_LINE2":"2 45696  53.0538 266.4888 0000516  99.2504 260.8543 15.06398389166776","GP_ID":"233214336","INCLINATION":"53.0538","REF_FRAME":"TEME","RA_OF_ASC_NODE":"266.4888","DECAY_DATE":null,"SITE":"AFETR","CENTER_NAME":"EARTH","NORAD_CAT_ID":"45696","REV_AT_EPOCH":"16677","PERIOD":"95.592","MEAN_MOTION_DDOT":"0.0000000000000","LAUNCH_DATE":"2020-06-04","ECCENTRICITY":"0.00005160","BSTAR":"0.00063383000000","MEAN_ELEMENT_THEORY":"SGP4","OBJECT_ID":"2020-035AR","EPOCH":"2023-06-04T14:59:35.315520","SEMIMAJOR_AXIS":"6925.353","MEAN_MOTION":"15.06398389","CLASSIFICATION_TYPE":"U","MEAN_ANOMALY":"260.8543","ARG_OF_PERICENTER":"99.2504","APOAPSIS":"547.576","TIME_SYSTEM":"UTC","TLE_LINE1":"1 45696U 20035AR  23155.62471430  .00009172  00000-0  63383-3 0  9998","EPHEMERIS_TYPE":"0","MEAN_MOTION_DOT":"0.00009172","RCS_SIZE":"LARGE"},{"APOAPSIS":"548.141","TIME_SYSTEM":"UTC","TLE_LINE1":"1 45697U 20035AS  23155.66710711  .00006800  00000-0  47496-3 0  9993","EPHEMERIS_TYPE":"0","RCS_SIZE":"LARGE","MEAN_MOTION_DOT":"0.00006800","LAUNCH_DATE":"2020-06-04","MEAN_MOTION_DDOT":"0.0000000000000","ECCENTRICITY":"0.00013300","BSTAR":"0.00047496000000","MEAN_ELEMENT_THEORY":"SGP4","OBJECT_ID":"2020-035AS","MEAN_MOTION":"15.06398012","EPOCH":"2023-06-04T16:00:38.054304","SEMIMAJOR_AXIS":"6925.355","ARG_OF_PERICENTER":"39.9738","CLASSIFICATION_TYPE":"U","MEAN_ANOMALY":"320.1349","SITE":"AFETR","CENTER_NAME":"EARTH","NORAD_CAT_ID":"45697","REV_AT_EPOCH":"16707","PERIOD":"95.592","PERIAPSIS":"546.299","ELEMENT_SET_NO":"999","OBJECT_TYPE":"PAYLOAD","COUNTRY_CODE":"US","FILE":"3925173","OBJECT_NAME":"STARLINK-1351","TLE_LINE2":"2 45697  53.0530 246.2950 0001330  39.9738 320.1349 15.06398012167071","GP_ID":"233215088","INCLINATION":"53.0530","DECAY_DATE":null,"REF_FRAME":"TEME","RA_OF_ASC_NODE":"246.2950"},{"GP_ID":"233214838","TLE_LINE2":"2 45698  53.0533 246.3360 0000675 104.1451 255.9613 15.06393100167071","DECAY_DATE":null,"RA_OF_ASC_NODE":"246.3360","REF_FRAME":"TEME","INCLINATION":"53.0533","COUNTRY_CODE":"US","OBJECT_TYPE":"PAYLOAD","PERIAPSIS":"546.767","ELEMENT_SET_NO":"999","OBJECT_NAME":"STARLINK-1370","FILE":"3925173","REV_AT_EPOCH":"16707","NORAD_CAT_ID":"45698","PERIOD":"95.593","CENTER_NAME":"EARTH","SITE":"AFETR","OBJECT_ID":"2020-035AT","MEAN_ELEMENT_THEORY":"SGP4","ARG_OF_PERICENTER":"104.1451","CLASSIFICATION_TYPE":"U","MEAN_ANOMALY":"255.9613","MEAN_MOTION":"15.06393100","EPOCH":"2023-06-04T15:43:20.741088","SEMIMAJOR_AXIS":"6925.370","LAUNCH_DATE":"2020-06-04","MEAN_MOTION_DDOT":"0.0000000000000","BSTAR":"0.00053498000000","ECCENTRICITY":"0.00006750","RCS_SIZE":"LARGE","MEAN_MOTION_DOT":"0.00007695","EPHEMERIS_TYPE":"0","APOAPSIS":"547.702","TIME_SYSTEM":"UTC","TLE_LINE1":"1 45698U 20035AT  23155.65510117  .00007695  00000-0  53498-3 0  9993"},{"SITE":"AFETR","CENTER_NAME":"EARTH","NORAD_CAT_ID":"45699","REV_AT_EPOCH":"16704","PERIOD":"95.592","ELEMENT_SET_NO":"999","PERIAPSIS":"546.738","OBJECT_TYPE":"PAYLOAD","COUNTRY_CODE":"US","FILE":"3924842","OBJECT_NAME":"STARLINK-1398","TLE_LINE2":"2 45699  53.0525 246.9886 0000708  73.0442 287.0624 15.06395286167045","GP_ID":"233180746","INCLINATION":"53.0525","RA_OF_ASC_NODE":"246.9886","REF_FRAME":"TEME","DECAY_DATE":null,"APOAPSIS":"547.718","TLE_LINE1":"1 45699U 20035AU  23155.51228702  .00005116  00000-0  36214-3 0  9998","TIME_SYSTEM":"UTC","EPHEMERIS_TYPE":"0","MEAN_MOTION_DOT":"0.00005116","RCS_SIZE":"LARGE","MEAN_MOTION_DDOT":"0.0000000000000","LAUNCH_DATE":"2020-06-04","ECCENTRICITY":"0.00007080","BSTAR":"0.00036214000000","MEAN_ELEMENT_THEORY":"SGP4","OBJECT_ID":"2020-035AU","EPOCH":"2023-06-04T12:17:41.598528","SEMIMAJOR_AXIS":"6925.363","MEAN_MOTION":"15.06395286","CLASSIFICATION_TYPE":"U","MEAN_ANOMALY":"287.0624","ARG_OF_PERICENTER":"73.0442"},{"PERIAPSIS":"546.737","ELEMENT_SET_NO":"999","OBJECT_TYPE":"PAYLOAD","COUNTRY_CODE":"US","FILE":"3924842","OBJECT_NAME":"STARLINK-1400","TLE_LINE2":"2 45700  53.0527 246.7078 0000727  76.0635 284.0435 15.06391144167056","GP_ID":"233179494","INCLINATION":"53.0527","DECAY_DATE":null,"REF_FRAME":"TEME","RA_OF_ASC_NODE":"246.7078","SITE":"AFETR","CENTER_NAME":"EARTH","NORAD_CAT_ID":"45700","REV_AT_EPOCH":"16705","PERIOD":"95.593","LAUNCH_DATE":"2020-06-04","MEAN_MOTION_DDOT":"0.0000000000000","BSTAR":"0.00046942000000","ECCENTRICITY":"0.00007270","MEAN_ELEMENT_THEORY":"SGP4","OBJECT_ID":"2020-035AV","MEAN_MOTION":"15.06391144","EPOCH":"2023-06-04T13:47:56.235552","SEMIMAJOR_AXIS":"6925.376","ARG_OF_PERICENTER":"76.0635","MEAN_ANOMALY":"284.0435","CLASSIFICATION_TYPE":"U","APOAPSIS":"547.744","TLE_LINE1":"1 45700U 20035AV  23155.57495643  .00006716  00000-0  46942-3 0  9993","TIME_SYSTEM":"UTC","EPHEMERIS_TYPE":"0","RCS_SIZE":"LARGE","MEAN_MOTION_DOT":"0.00006716"},{"ECCENTRICITY":"0.00009580","BSTAR":"0.00073209000000","LAUNCH_DATE":"2020-06-04","MEAN_MOTION_DDOT":"0.0000000000000","ARG_OF_PERICENTER":"75.1987","CLASSIFICATION_TYPE":"U","MEAN_ANOMALY":"284.9108","MEAN_MOTION":"15.06397158","EPOCH":"2023-06-04T16:05:56.408928","SEMIMAJOR_AXIS":"6925.357","OBJECT_ID":"2020-035AW","MEAN_ELEMENT_THEORY":"SGP4","TLE_LINE1":"1 45701U 20035AW  23155.67079177  .00010639  00000-0  73209-3 0  9990","TIME_SYSTEM":"UTC","APOAPSIS":"547.886","RCS_SIZE":"LARGE","MEAN_MOTION_DOT":"0.00010639","EPHEMERIS_TYPE":"0","OBJECT_NAME":"STARLINK-1403","FILE":"3925173","COUNTRY_CODE":"US","OBJECT_TYPE":"PAYLOAD","PERIAPSIS":"546.559","ELEMENT_SET_NO":"999","DECAY_DATE":null,"RA_OF_ASC_NODE":"246.2812","REF_FRAME":"TEME","INCLINATION":"53.0547","GP_ID":"233214588","TLE_LINE2":"2 45701  53.0547 246.2812 0000958  75.1987 284.9108 15.06397158167064","CENTER_NAME":"EARTH","SITE":"AFETR","PERIOD":"95.592","REV_AT_EPOCH":"16706","NORAD_CAT_ID":"45701"},{"TLE_LINE2":"2 45702  53.0529 246.3599 0000579  93.4397 266.6658 15.06396756167065","GP_ID":"233215339","INCLINATION":"53.0529","REF_FRAME":"TEME","RA_OF_ASC_NODE":"246.3599","DECAY_DATE":null,"ELEMENT_SET_NO":"999","PERIAPSIS":"546.823","COUNTRY_CODE":"US","OBJECT_TYPE":"PAYLOAD","FILE":"3925173","OBJECT_NAME":"STARLINK-1405","NORAD_CAT_ID":"45702","REV_AT_EPOCH":"16706","PERIOD":"95.592","SITE":"AFETR","CENTER_NAME":"EARTH","MEAN_ELEMENT_THEORY":"SGP4","OBJECT_ID":"2020-035AX","SEMIMAJOR_AXIS":"6925.359","EPOCH":"2023-06-04T15:39:23.910048","MEAN_MOTION":"15.06396756","CLASSIFICATION_TYPE":"U","MEAN_ANOMALY":"266.6658","ARG_OF_PERICENTER":"93.4397","MEAN_MOTION_DDOT":"0.0000000000000","LAUNCH_DATE":"2020-06-04","ECCENTRICITY":"0.00005790","BSTAR":"0.00061257000000","EPHEMERIS_TYPE":"0","MEAN_MOTION_DOT":"0.00008854","RCS_SIZE":"LARGE","APOAPSIS":"547.624","TIME_SYSTEM":"UTC","TLE_LINE1":"1 45702U 20035AX  23155.65236007  .00008854  00000-0  61257-3 0  9992"}];
